NORAD_CAT_ID,OBJECT_NAME,OBJECT_TYPE,EPOCH,MEAN_MOTION,ECCENTRICITY,INCLINATION,RA_OF_ASC_NODE,ARG_OF_PERICENTER,MEAN_ANOMALY,BSTAR,MEAN_MOTION_DOT,MEAN_MOTION_DDOT,TLE_LINE0,TLE_LINE1,TLE_LINE2,SEMIMAJOR_AXIS,PERIOD,APOGEE,PERIGEE,DECAYED
52854.0,STARLINK-4204,PAYLOAD,2023-11-14 21:07:15,15.08841334,0.0001709,53.2165,221.1078,86.5891,273.5297,3.1272e-05,2.1e-06,0.0,0 STARLINK-4204,1 52854U 22062AA  23318.88003531  .00000210  00000-0  31272-4 0  9993,2 52854  53.2165 221.1078 0001709  86.5891 273.5297 15.08841334 78235,6917.876,95.437,540.924,538.559,0.0
52854.0,STARLINK-4204,PAYLOAD,2023-11-15 00:18:01,15.0884125,0.0001309,53.2173,220.5119,91.374,268.7402,0.00013076,1.794e-05,0.0,0 STARLINK-4204,1 52854U 22062AA  23319.01251439  .00001794  00000-0  13076-3 0  9990,2 52854  53.2173 220.5119 0001309  91.3740 268.7402 15.08841250 78743,6917.877,95.437,540.647,538.836,0.0
52854.0,STARLINK-4204,PAYLOAD,2023-11-15 20:58:01,15.08843276,0.000149,53.2182,216.6463,84.6679,275.4483,0.00010821,1.435e-05,0.0,0 STARLINK-4204,1 52854U 22062AA  23319.87363403  .00001435  00000-0  10821-3 0  9996,2 52854  53.2182 216.6463 0001490  84.6679 275.4483 15.08843276 78382,6917.87,95.437,540.766,538.705,0.0
52854.0,STARLINK-4204,PAYLOAD,2023-11-16 03:19:33,15.08854407,0.0001255,53.2177,215.4574,83.966,276.1475,1.6789e-05,-2.1e-07,0.0,0 STARLINK-4204,1 52854U 22062AA  23320.13858764 -.00000021  00000-0  16789-4 0  9997,2 52854  53.2177 215.4574 0001255  83.9660 276.1475 15.08854407 78913,6917.836,95.437,540.57,538.833,0.0
52854.0,STARLINK-4204,PAYLOAD,2023-11-16 17:38:02,15.08837955,0.0001627,53.2173,212.7823,87.5933,272.5246,5.4694e-05,5.82e-06,0.0,0 STARLINK-4204,1 52854U 22062AA  23320.73475675  .00000582  00000-0  54694-4 0  9997,2 52854  53.2173 212.7823 0001627  87.5933 272.5246 15.08837955 79008,6917.887,95.438,540.877,538.626,0.0
52854.0,STARLINK-4204,PAYLOAD,2023-11-16 23:59:35,15.08843688,0.0001787,53.2124,211.5915,92.39,267.7297,-0.0001733,-3.045e-05,0.0,0 STARLINK-4204,1 52854U 22062AA  23320.99971139 -.00003045  00000-0 -17330-3 0  9995,2 52854  53.2124 211.5915 0001787  92.3900 267.7297 15.08843688 78559,6917.869,95.437,540.97,538.498,0.0
52854.0,STARLINK-4204,PAYLOAD,2023-11-17 17:28:49,15.0884115,0.0001188,53.2177,208.3227,89.8832,270.2296,0.00027387,4.074e-05,0.0,0 STARLINK-4204,1 52854U 22062AA  23321.72835300  .00004074  00000-0  27387-3 0  9990,2 52854  53.2177 208.3227 0001188  89.8832 270.2296 15.08841150 78669,6917.877,95.437,540.564,538.92,0.0
52854.0,STARLINK-4204,PAYLOAD,2023-11-18 03:01:07,15.08852458,0.0001318,53.2164,206.5386,91.8615,268.2528,0.0003166,4.756e-05,0.0,0 STARLINK-4204,1 52854U 22062AA  23322.12578692  .00004756  00000-0  31660-3 0  9999,2 52854  53.2164 206.5386 0001318  91.8615 268.2528 15.08852458 79218,6917.842,95.437,540.619,538.796,0.0
52854.0,STARLINK-4204,PAYLOAD,2023-11-18 09:22:41,15.08838522,0.0001799,53.2161,205.3467,84.6173,275.5024,8.7417e-06,-1.49e-06,0.0,0 STARLINK-4204,1 52854U 22062AA  23322.39075404 -.00000149  00000-0  87417-5 0  9997,2 52854  53.2161 205.3467 0001799  84.6173 275.5024 15.08838522 79256,6917.885,95.438,540.994,538.505,0.0
52854.0,STARLINK-4204,PAYLOAD,2023-11-19 01:16:32,15.08832454,0.0001518,53.2164,202.3736,86.6574,273.4592,-4.6495e-05,-1.028e-05,0.0,0 STARLINK-4204,1 52854U 22062AA  23323.05315922 -.00001028  00000-0 -46495-4 0  9991,2 52854  53.2164 202.3736 0001518  86.6574 273.4592 15.08832454 79357,6917.903,95.438,540.819,538.718,0.0
52854.0,STARLINK-4204,PAYLOAD,2023-11-19 09:13:28,15.0883683,0.0001523,53.2163,200.8873,87.9916,272.1251,-3.3302e-05,-8.18e-06,0.0,0 STARLINK-4204,1 52854U 22062AA  23323.38435796 -.00000818  00000-0 -33302-4 0  9998,2 52854  53.2163 200.8873 0001523  87.9916 272.1251 15.08836830 78912,6917.89,95.438,540.809,538.701,0.0
52854.0,STARLINK-4204,PAYLOAD,2023-11-19 21:56:33,15.08840589,0.0001446,53.2155,198.5086,89.3462,270.7696,5.4857e-06,-2.01e-06,0.0,0 STARLINK-4204,1 52854U 22062AA  23323.91427672 -.00000201  00000-0  54857-5 0  9995,2 52854  53.2155 198.5086 0001446  89.3462 270.7696 15.08840589 78999,6917.879,95.438,540.744,538.743,0.0
52854.0,STARLINK-4204,PAYLOAD,2023-11-20 01:07:19,15.0884194,0.0001392,53.2165,197.9133,85.3771,274.738,2.2955e-05,7.7e-07,0.0,0 STARLINK-4204,1 52854U 22062AA  23324.04675628  .00000077  00000-0  22955-4 0  9999,2 52854  53.2165 197.9133 0001392  85.3771 274.7380 15.08841940 79509,6917.874,95.437,540.702,538.776,0.0
52854.0,STARLINK-4204,PAYLOAD,2023-11-20 09:04:14,15.08852316,0.0001381,53.2164,196.4265,91.7513,268.3637,-0.00030242,-5.099e-05,0.0,0 STARLINK-4204,1 52854U 22062AA  23324.37795043 -.00005099  00000-0 -30242-3 0  9997,2 52854  53.2164 196.4265 0001381  91.7513 268.3637 15.08852316 79065,6917.843,95.437,540.663,538.752,0.0
52854.0,STARLINK-4204,PAYLOAD,2023-11-20 21:47:20,15.08842084,0.0001451,53.2155,194.0481,95.4888,264.627,0.00022139,3.237e-05,0.0,0 STARLINK-4204,1 52854U 22062AA  23324.90787940  .00003237  00000-0  22139-3 0  9999,2 52854  53.2155 194.0481 0001451  95.4888 264.6270 15.08842084 79145,6917.874,95.437,540.743,538.735,0.0
52854.0,STARLINK-4204,PAYLOAD,2023-11-21 08:55:02,15.08840563,0.0001387,53.2152,191.967,94.4789,265.6361,0.00016801,2.387e-05,0.0,0 STARLINK-4204,1 52854U 22062AA  23325.37156143  .00002387  00000-0  16801-3 0  9990,2 52854  53.2152 191.9670 0001387  94.4789 265.6361 15.08840563 79709,6917.879,95.438,540.703,538.784,0.0
52854.0,STARLINK-4204,PAYLOAD,2023-11-21 20:02:44,15.08842535,0.0001425,53.215,189.8853,95.1963,264.9192,0.00026293,3.899e-05,0.0,0 STARLINK-4204,1 52854U 22062AA  23325.83524188  .00003899  00000-0  26293-3 0  9994,2 52854  53.2150 189.8853 0001425  95.1963 264.9192 15.08842535 79289,6917.873,95.437,540.723,538.752,0.0
52854.0,STARLINK-4204,PAYLOAD,2023-11-21 21:38:07,15.08847114,0.0001404,53.2154,189.5878,95.594,264.5212,0.00014586,2.035e-05,0.0,0 STARLINK-4204,1 52854U 22062AA  23325.90147883  .00002035  00000-0  14586-3 0  9998,2 52854  53.2154 189.5878 0001404  95.5940 264.5212 15.08847114 79291,6917.859,95.437,540.695,538.752,0.0
52854.0,STARLINK-4204,PAYLOAD,2023-11-22 19:53:31,15.08851992,0.0001423,53.2152,185.4242,95.5671,264.5484,0.00025435,3.764e-05,0.0,0 STARLINK-4204,1 52854U 22062AA  23326.82883427  .00003764  00000-0  25435-3 0  9996,2 52854  53.2152 185.4242 0001423  95.5671 264.5484 15.08851992 79921,6917.844,95.437,540.693,538.724,0.0
52854.0,STARLINK-4204,PAYLOAD,2023-11-22 21:28:54,15.08852438,0.0001485,53.2158,185.127,94.7668,265.3494,0.00030427,4.559e-05,0.0,0 STARLINK-4204,1 52854U 22062AA  23326.89507436  .00004559  00000-0  30427-3 0  9996,2 52854  53.2158 185.1270 0001485  94.7668 265.3494 15.08852438 79443,6917.842,95.437,540.735,538.68,0.0
52854.0,STARLINK-4204,PAYLOAD,2023-11-23 19:44:19,15.08826369,0.0001453,53.2164,180.9639,99.0603,261.0554,-0.0002199,-3.785e-05,0.0,0 STARLINK-4204,1 52854U 22062AA  23327.82244455 -.00003785  00000-0 -21990-3 0  9996,2 52854  53.2164 180.9639 0001453  99.0603 261.0554 15.08826369 80079,6917.922,95.438,540.792,538.782,0.0
52854.0,STARLINK-4204,PAYLOAD,2023-11-23 21:19:42,15.08826668,0.0001426,53.2165,180.667,98.321,261.7944,-0.0002036,-3.526e-05,0.0,0 STARLINK-4204,1 52854U 22062AA  23327.88868498 -.00003526  00000-0 -20360-3 0  9994,2 52854  53.2165 180.6670 0001426  98.3210 261.7944 15.08826668 79595,6917.921,95.438,540.773,538.8,0.0
52854.0,STARLINK-4204,PAYLOAD,2023-11-24 13:13:33,15.08830533,0.000126,53.216,177.694,94.0056,266.108,-6.0983e-05,-1.258e-05,0.0,0 STARLINK-4204,1 52854U 22062AA  23328.55108728 -.00001258  00000-0 -60983-4 0  9998,2 52854  53.2160 177.6940 0001260  94.0056 266.1080 15.08830533 79690,6917.909,95.438,540.646,538.903,0.0
52854.0,STARLINK-4204,PAYLOAD,2023-11-24 19:35:06,15.08834525,0.0001291,53.2165,176.5081,89.6934,270.4206,8.5727e-05,1.077e-05,0.0,0 STARLINK-4204,1 52854U 22062AA  23328.81604781  .00001077  00000-0  85727-4 0  9997,2 52854  53.2165 176.5081 0001291  89.6934 270.4206 15.08834525 80222,6917.897,95.438,540.655,538.869,0.0
52854.0,STARLINK-4204,PAYLOAD,2023-11-25 14:39:44,15.08843802,0.0001323,53.2163,172.939,81.8727,278.2415,0.00048743,7.479e-05,0.0,0 STARLINK-4204,1 52854U 22062AA  23329.61092948  .00007479  00000-0  48743-3 0  9990,2 52854  53.2163 172.9390 0001323  81.8727 278.2415 15.08843802 79856,6917.869,95.437,540.649,538.819,0.0
52854.0,STARLINK-4204,PAYLOAD,2023-11-25 21:01:16,15.08863933,0.0001302,53.2146,171.7479,80.3618,279.7521,0.00076339,0.0001189,0.0,0 STARLINK-4204,1 52854U 22062AA  23329.87588299  .00011890  00000-0  76339-3 0  9991,2 52854  53.2146 171.7479 0001302  80.3618 279.7521 15.08863933 79897,6917.807,95.436,540.573,538.772,0.0
52854.0,STARLINK-4204,PAYLOAD,2023-11-25 22:36:39,15.08869636,0.0001289,53.2144,171.45,83.4901,276.6238,0.00093582,0.00014649,0.0,0 STARLINK-4204,1 52854U 22062AA  23329.94212135  .00014649  00000-0  93582-3 0  9996,2 52854  53.2144 171.4500 0001289  83.4901 276.6238 15.08869636 80394,6917.79,95.436,540.547,538.763,0.0
52854.0,STARLINK-4204,PAYLOAD,2023-11-26 19:16:39,15.08847102,0.0001485,53.215,167.5786,115.8975,244.217,-0.00013584,-2.45e-05,0.0,0 STARLINK-4204,1 52854U 22062AA  23330.80324028 -.00002450  00000-0 -13584-3 0  9991,2 52854  53.2150 167.5786 0001485 115.8975 244.2170 15.08847102 80527,6917.859,95.437,540.751,538.696,0.0
52854.0,STARLINK-4204,PAYLOAD,2023-11-26 22:27:26,15.08843165,0.0001352,53.2147,166.9869,95.1722,264.9425,-1.7191e-06,-3.15e-06,0.0,0 STARLINK-4204,1 52854U 22062AA  23330.93572257 -.00000315  00000-0 -17191-5 0  9992,2 52854  53.2147 166.9869 0001352  95.1722 264.9425 15.08843165 80056,6917.871,95.437,540.671,538.8,0.0
52854.0,STARLINK-4204,PAYLOAD,2023-11-27 12:45:54,15.08836235,0.0001349,53.2143,164.311,94.5433,265.5713,-0.00010762,-2e-05,0.0,0 STARLINK-4204,1 52854U 22062AA  23331.53188594 -.00002000  00000-0 -10762-3 0  9994,2 52854  53.2143 164.3110 0001349  94.5433 265.5713 15.08836235 80632,6917.892,95.438,540.69,538.824,0.0
